GOES 15                 
1 36411U 10008A   23027.47257963  .00000054  00000+0  00000+0 0  9998
2 36411   0.0118  52.3019 0002448 140.9952 335.0376  1.00269489 47260
ECHOSTAR 14             
1 36499U 10010A   23027.56255444 -.00000001  00000+0  00000+0 0  9992
2 36499   0.0173  79.2719 0002265 230.3550 260.5680  1.00270810 34151
SES-1                   
1 36516U 10016A   23027.49119277 -.00000116  00000+0  00000+0 0  9990
2 36516   0.0606 278.6247 0002852  37.9254 245.7452  1.00271289 46647
ASTRA 3B                
1 36581U 10021A   23027.55372019  .00000135  00000+0  00000+0 0  9990
2 36581   0.0492  42.6954 0003275 259.3315  47.3526  1.00274661 46470
COMSATBW-2              
1 36582U 10021B   23027.55162823  .00000086  00000+0  00000+0 0  9996
2 36582   0.0257 125.4635 0002291 182.4067  30.4572  1.00267760 46558
BADR-5                  
1 36592U 10025A   23027.55415601  .00000143  00000+0  00000+0 0  9990
2 36592   0.0299 125.8567 0001391 113.7808 112.4298  1.00277137 40811
COMS 1                  
1 36744U 10032A   23027.11021581 -.00000348  00000+0  00000+0 0  9997
2 36744   1.6369  91.1813 0000985 232.9033 329.8584  1.00269975 38681
ARABSAT-5A              
1 36745U 10032B   23027.48324229  .00000151  00000+0  00000+0 0  9994
2 36745   0.0634  53.0508 0002879 259.7798  18.0800  1.00271105 46244
ECHOSTAR 15             
1 36792U 10034A   23027.51937705 -.00000283  00000+0  00000+0 0  9998
2 36792   0.0350 271.4095 0002504   6.2905 334.1168  1.00273801 45926
BEIDOU 5                
1 36828U 10036A   23026.85787709 -.00000099  00000+0  00000+0 0  9998
2 36828  54.2077 174.1868 0034873 183.3858 184.6668  1.00286934 45821
NILESAT 201             
1 36830U 10037A   23027.33244694 -.00000060  00000+0  00000+0 0  9995
2 36830   0.0471 183.5624 0003415 108.3205 307.0987  1.00271819 45962
RASCOM-QAF 1R           
1 36831U 10037B   23027.33436458  .00000016  00000+0  00000+0 0  9997
2 36831   0.0421 105.4627 0006605 187.6484 316.4760  1.00271934 45890
AEHF-1 (USA 214)        
1 36868U 10039A   23027.33462608  .00000020  00000+0  00000+0 0  9990
2 36868   5.0987  83.8517 0000501  31.9433 134.9676  1.00272639 41251
QZS-1 (MICHIBIKI-1)     
1 37158U 10045A   23027.63032777 -.00000213  00000+0  00000+0 0  9998
2 37158  42.5766 130.3013 0762885 270.5755  87.2287  1.00249026 45348
XM-5                    
1 37185U 10053A   23027.48173928 -.00000025  00000+0  00000+0 0  9995
2 37185   0.0170  80.8778 0000606 147.3158 316.4972  1.00274838 45085
BSAT-3B                 
1 37207U 10056B   23026.52757911 -.00000354  00000+0  00000+0 0  9992
2 37207   0.1036 290.8002 0004063  19.6471 114.8433  1.00269885 39716
BEIDOU 6                
1 37210U 10057A   23027.58091564 -.00000114  00000+0  00000+0 0  9993
2 37210   0.9482  52.7165 0005047 174.7300 268.3132  1.00271605 44883
SKYTERRA 1              
1 37218U 10061A   23027.49113440 -.00000121  00000+0  00000+0 0  9992
2 37218   2.7397  39.3699 0001520 264.2985 258.3377  1.00271862 44790
ZHONGXING-20A           
1 37234U 10064A   23027.56609760 -.00000192  00000+0  00000+0 0  9994
2 37234   3.2149  86.0947 0002590 231.0082  98.7429  1.00269256 44622
HYLAS 1                 
1 37237U 10065A   23027.55929875  .00000102  00000+0  00000+0 0  9999
2 37237   2.4828  87.8170 0002032 221.6402  70.1730  1.00269247 44572
INTELSAT 17 (IS-17)     
1 37238U 10065B   23027.56217519 -.00000003  00000+0  00000+0 0  9997
2 37238   0.0320 220.2624 0002520  92.7578  81.9195  1.00271205 40831
BEIDOU 7                
1 37256U 10068A   23027.64418209 -.00000197  00000+0  00000+0 0  9992
2 37256  49.8087 286.9585 0023703 207.2863 330.3219  1.00297270 44396
EUTELSAT KA-SAT 9A      
1 37258U 10069A   23027.55075660  .00000060  00000+0  00000+0 0  9993
2 37258   0.0748 286.1329 0000432 129.5986 278.0818  1.00272600 44411
HISPASAT 30W-5          
1 37264U 10070A   23027.32782720 -.00000218  00000+0  00000+0 0  9995
2 37264   0.0124 140.3726 0002307 174.1552 259.7691  1.00272652 40784
KOREASAT 6              
1 37265U 10070B   23027.55781209 -.00000364  00000+0  00000+0 0  9994
2 37265   0.0239 183.4425 0002566 126.6786 133.2364  1.00272310 44366
BEIDOU 8                
1 37384U 11013A   23027.50188152 -.00000174  00000+0  00000+0 0  9996
2 37384  60.6184  52.0425 0024898 188.2944 171.8616  1.00293947 43278
INTELSAT NEW DAWN       
1 37392U 11016A   23027.55555066  .00000154  00000+0  00000+0 0  9992
2 37392   0.0181 118.1458 0000411 210.2864  30.9039  1.00273395 40887
YAHSAT 1A               
1 37393U 11016B   23027.22045892  .00000099  00000+0  00000+0 0  9996
2 37393   0.0180  84.6681 0003239 235.4303 297.9589  1.00268195 30000
SBIRS GEO-1 (USA 230)   
1 37481U 11019A   23027.49038981 -.00000006  00000+0  00000+0 0  9996
2 37481   2.1511  34.7109 0002109 263.5135  70.5160  1.00272268 42997
TELSTAR 14R             
1 37602U 11021A   23027.51831796 -.00000281  00000+0  00000+0 0  9997
2 37602   0.0511 264.7653 0003266  65.9867 279.3438  1.00272403 43437
GSAT-8                  
1 37605U 11022A   23027.55999608  .00000083  00000+0  00000+0 0  9991
2 37605   0.0184  85.1774 0008212 191.2079 106.8342  1.00270707 40811
ST-2                    
1 37606U 11022B   23027.56653343 -.00000212  00000+0  00000+0 0  9991
2 37606   0.0051 251.6669 0001957  69.3414  97.4893  1.00268889 42877
CHINASAT 10 (ZX 10)     
1 37677U 11026A   23027.59401463 -.00000354  00000+0  00000+0 0  9997
2 37677   0.0707 269.0266 0002939 307.4772 234.4126  1.00268855 42609
TIANLIAN 1-02           
1 37737U 11032A   23027.58239744 -.00000054  00000+0  00000+0 0  9998
2 37737   2.8452  74.7508 0077868   0.6036  67.8315  1.00271996 42328
GSAT-12                 
1 37746U 11034A   23027.55851427  .00000122  00000+0  00000+0 0  9990
2 37746   1.9481  89.9390 0006495 349.2277 296.3320  1.00273146 31090
SES-3                   
1 37748U 11035A   23027.49036351 -.00000103  00000+0  00000+0 0  9997
2 37748   0.0157  25.9639 0002880 260.8468 273.1946  1.00271564 42194
KAZSAT-2                
1 37749U 11035B   23027.35110024 -.00000200  00000+0  00000+0 0  9991
2 37749   0.0315 196.7237 0000722  40.0738 102.4180  1.00273366 40984
BEIDOU 9                
1 37763U 11038A   23026.86716133 -.00000018  00000+0  00000+0 0  9995
2 37763  54.4855 176.6970 0102606 227.3175 129.4976  1.00277021 42236
ASTRA 1N                
1 37775U 11041A   23027.55267421  .00000118  00000+0  00000+0 0  9990
2 37775   0.0517  35.5211 0003844 320.2293 348.9240  1.00270766 32128
BSAT-3C (JCSAT-110R)    
1 37776U 11041B   23027.49919347 -.00000352  00000+0  00000+0 0  9996
2 37776   0.0524 289.7182 0000347  71.3920  55.0306  1.00269190 38071
PAKSAT-1R               
1 37779U 11042A   23027.55642230  .00000152  00000+0  00000+0 0  9998
2 37779   0.0120  87.4133 0004736 284.5091 352.9047  1.00272153 42077
CHINASAT 1A (ZX 1A)     
1 37804U 11047A   23027.49204595 -.00000034  00000+0  00000+0 0  9993
2 37804   0.5195  95.0261 0003337 241.6487  41.1971  1.00051378 14952
SES-2                   
1 37809U 11049A   23027.29734404 -.00000197  00000+0  00000+0 0  9995
2 37809   0.0460 273.7974 0003150  43.8695 188.6536  1.00270236 41555
ARABSAT-5C              
1 37810U 11049B   23027.33785118  .00000121  00000+0  00000+0 0  9996
2 37810   0.0501  17.7261 0003633 220.4806  29.7530  1.00269425 41659
EUTELSAT 7 WEST A       
1 37816U 11051A   23027.33235979 -.00000062  00000+0  00000+0 0  9995
2 37816   0.0605  12.3236 0004639 226.5180 359.8540  1.00270818 41490
QUETZSAT 1              
1 37826U 11054A   23027.50780477 -.00000243  00000+0  00000+0 0  9997
2 37826   0.0403 278.7064 0002654  24.1248 289.4795  1.00272088 37481
INTELSAT 18 (IS-18)     
1 37834U 11056A   23027.51313986  .00000051  00000+0  00000+0 0  9992
2 37834   0.0193  34.5439 0002053 282.4993 174.1883  1.00272755 41416
EUTELSAT 16A            
1 37836U 11057A   23027.55223838  .00000102  00000+0  00000+0 0  9992
2 37836   0.0667 357.1540 0005142 309.8662  34.3319  1.00269226 33567
VIASAT-1                
1 37843U 11059A   23027.48173926 -.00000025  00000+0  00000+0 0  9991
2 37843   0.0140  93.5700 0002186 209.7091 241.4836  1.00273430 34927
ASIASAT 7               
1 37933U 11069A   23027.64408993 -.00000335  00000+0  00000+0 0  9999
2 37933   0.0300 254.6982 0001597  40.5945 168.6710  1.00267751 41064
BEIDOU 10               
1 37948U 11073A   23027.64158436 -.00000155  00000+0  00000+0 0  9994
2 37948  49.9298 286.6122 0085820 220.7397 306.0944  1.00283357 41004
LUCH 5A                 
1 37951U 11074B   23027.51052491 -.00000052  00000+0  00000+0 0  9995
2 37951   5.5842  93.5322 0002205 223.8858 159.9933  1.00267806 40799
NIGCOMSAT 1R            
1 38014U 11077A   23027.55746828  .00000143  00000+0  00000+0 0  9997
2 38014   0.0346 227.5330 0004330 113.2992  28.8906  1.00273181 40550
FENGYUN 2F              
1 38049U 12002A   23027.59807321 -.00000361  00000+0  00000+0 0  9997
2 38049   4.3414  77.9365 0001348 278.4590  97.5987  1.00267070 40484
WGS F4 (USA 233)        
1 38070U 12003A   23027.17132881 -.00000217  00000+0  00000+0 0  9998
2 38070   0.0183  78.9832 0000475 188.3507   8.8754  1.00270576 31731
SES-4                   
1 38087U 12007A   23027.32948333 -.00000170  00000+0  00000+0 0  9992
2 38087   0.0244  58.4373 0002415 254.1434 270.3550  1.00272446 39834
BEIDOU 11               
1 38091U 12008A   23027.56069338  .00000054  00000+0  00000+0 0  9993
2 38091   2.0779  71.4648 0011806 309.2320   6.4266  1.00273032 40076
MUOS-1                  
1 38093U 12009A   23027.49206823 -.00000129  00000+0  00000+0 0  9994
2 38093   3.2157  37.4023 0055097 355.8634 170.3526  1.00271807 40040
INTELSAT 22 (IS-22)     
1 38098U 12011A   23027.56339549 -.00000060  00000+0  00000+0 0  9996
2 38098   0.0083  29.4600 0002468 273.2873  98.7319  1.00271245 39410
